NOAA 20 (JPSS-1)        
1 43013U 17073A   24265.48202683  .00000257  00000+0  14232-3 0  9999
2 43013  98.7106 201.8041 0000902  13.2785 346.8415 14.19591739354560
NOAA 21 (JPSS-2)        
1 54234U 22150A   24265.16623353  .00000320  00000+0  17293-3 0  9995
2 54234  98.7560 201.9501 0000899 143.2353 216.8885 14.19511303 96595
ISS (ZARYA)             
1 25544U 98067A   24265.36451681  .00021357  00000+0  38875-3 0  9994
2 25544  51.6389 198.9895 0007337  17.0105  78.7405 15.49417619473469
CSS (TIANHE)            
1 48274U 21035A   24262.31659931  .00037630  00000+0  38457-3 0  9997
2 48274  41.4677 235.2670 0002871 178.9104 181.1743 15.64285295193666
ISS (NAUKA)             
1 49044U 21066A   24264.83139848  .00021162  00000+0  38561-3 0  9995
2 49044  51.6372 201.6351 0007401  13.9237 346.1954 15.49392281178789
FREGAT DEB              
1 49271U 11037PF  24264.85807935  .00006405  00000+0  16335-1 0  9991
2 49271  51.6468  72.1165 0910140 332.6625  22.8987 12.20458560146874
CSS (WENTIAN)           
1 53239U 22085A   24262.31659931  .00037630  00000+0  38457-3 0  9990
2 53239  41.4677 235.2670 0002871 178.9104 181.1743 15.64285295189006
CSS (MENGTIAN)          
1 54216U 22143A   24262.31659931  .00037630  00000+0  38457-3 0  9991
2 54216  41.4677 235.2670 0002871 178.9104 181.1743 15.64285295103839
TIANZHOU-7              
1 58811U 24013A   24262.31659931  .00037630  00000+0  38457-3 0  9994
2 58811  41.4677 235.2670 0002871 178.9104 181.1743 15.64285295159925
CREW DRAGON 8           
1 59097U 24042A   24264.83139848  .00021162  00000+0  38561-3 0  9991
2 59097  51.6372 201.6351 0007401  13.9237 346.1954 15.49392281472695
SOYUZ-MS 25             
1 59294U 24055A   24264.83139848  .00021162  00000+0  38561-3 0  9994
2 59294  51.6372 201.6351 0007401  13.9237 346.1954 15.49392281 27768
1998-067WL              
1 59561U 98067WL  24264.53428990  .00094438  00000+0  79657-3 0  9998
2 59561  51.6287 193.6215 0001534 117.6946 242.4207 15.69021903 24194
SNOOPI                  
1 59563U 98067WN  24265.19962761  .00944317  46480-3  14803-2 0  9999
2 59563  51.6206 181.4691 0004691 181.6676 178.4320 16.03405694 24419
SHENZHOU-18 (SZ-18)     
1 59591U 24078A   24262.31659931  .00037630  00000+0  38457-3 0  9991
2 59591  41.4677 235.2670 0002871 178.9104 181.1743 15.64285295 22447
SZ-17 MODULE            
1 59624U 23164C   24265.31769873  .00094776  00000+0  54732-3 0  9991
2 59624  41.4734 209.7156 0011726 216.7110 143.2932 15.77471902 22658
PROGRESS-MS 27          
1 59913U 24103A   24264.83139848  .00021162  00000+0  38561-3 0  9996
2 59913  51.6372 201.6351 0007401  13.9237 346.1954 15.49392281 17776
CYGNUS NG-21            
1 60378U 24139A   24264.83139848  .00021162  00000+0  38561-3 0  9992
2 60378  51.6372 201.6351 0007401  13.9237 346.1954 15.49392281  6704
PROGRESS-MS 28          
1 60450U 24145A   24264.83139848  .00021162  00000+0  38561-3 0  9990
2 60450  51.6372 201.6351 0007401  13.9237 346.1954 15.49392281  5490
BINAR-4                 
1 60952U 98067WS  24262.07641569  .00312162  00000+0  41554-2 0  9991
2 60952  51.6360 214.7413 0008951  20.1328 340.0015 15.56507040  3061
COSMOGIRLSAT            
1 60953U 98067WT  24265.04122356  .00114230  00000+0  16414-2 0  9993
2 60953  51.6369 200.0400 0010459  26.3372 333.8149 15.55161807  3523
SAKURA                  
1 60954U 98067WU  24264.90828723  .00126143  00000+0  17692-2 0  9994
2 60954  51.6365 200.6533 0010197  27.5017 332.6512 15.55771517  3505
1998-067WV              
1 60955U 98067WV  24265.32326875  .00261767  00000+0  29334-2 0  9991
2 60955  51.6350 198.1735 0005771  41.9174 318.2260 15.61260078  3570
BINAR-2                 
1 60956U 98067WW  24262.14063217  .00184680  00000+0  25471-2 0  9993
2 60956  51.6329 214.4148 0009466  19.5723 340.5630 15.56003247  3063
BINAR-3                 
1 60957U 98067WX  24264.89587303  .00185121  00000+0  23774-2 0  9990
2 60957  51.6347 200.5674 0007654  32.3346 327.8114 15.57933348  5483
1998-067WY              
1 60958U 98067WY  24264.85044799  .00101262  00000+0  14770-2 0  9994
2 60958  51.6369 201.0162 0010844  25.2632 334.8887 15.54808047  3487
SOYUZ-MS 26             
1 61043U 24162A   24264.83139848  .00021162  00000+0  38561-3 0  9998
2 61043  51.6372 201.6351 0007401  13.9237 346.1954 15.49392281472699
